BEIDOU-3 M28            
1 58654U 23207A   26158.09706539 -.00000041  00000+0  00000+0 0  9997
2 58654  55.7441  62.6436 0003533 343.2058  16.8105  1.86229769 16651
BEIDOU-3 M26            
1 58655U 23207B   26157.89456170 -.00000041  00000+0  00000+0 0  9998
2 58655  55.7459  62.6370 0003491 317.5476  42.4536  1.86229767 16638
GSAT0225 (GALILEO 29)   
1 59598U 24079A   26158.72723269  .00000025  00000+0  00000+0 0  9993
2 59598  55.1140 101.3451 0001801 291.6432 248.2386  1.70474089 13159
GSAT0227 (GALILEO 30)   
1 59600U 24079C   26158.03093536  .00000024  00000+0  00000+0 0  9997
2 59600  55.1089 101.3625 0001893  43.8479 316.1405  1.70474095 13195
GSAT0232 (GALILEO 32)   
1 61182U 24167A   26158.84900730  .00000043  00000+0  00000+0 0  9996
2 61182  55.1875 221.5705 0005964 224.5707 133.0586  1.70474473 10716
GSAT0226 (GALILEO 31)   
1 61183U 24167B   26158.65365823  .00000043  00000+0  00000+0 0  9994
2 61183  55.1863 221.5830 0002728 222.2356 106.8406  1.70474436 10687
BEIDOU-3 M25            
1 61186U 24168B   26158.79823957 -.00000056  00000+0  00000+0 0  9995
2 61186  54.4825 302.5694 0003046 304.6012  58.5938  1.86230145 11617
BEIDOU-3 M27            
1 61187U 24168C   26156.98532191 -.00000055  00000+0  00000+0 0  9991
2 61187  54.4796 302.6153 0001749  47.7222 315.0311  1.86230323  9051
NAVSTAR 83 (USA 440)    
1 62339U 24242A   26157.87246404 -.00000064  00000+0  00000+0 0  9992
2 62339  54.8526 334.6000 0017393   4.1910 356.8034  2.00571511 11057
QZS-6 (MICHIBIKI-6)     
1 62876U 25023A   26158.69608490 -.00000219  00000+0  00000+0 0  9996
2 62876   0.0288  49.4098 0002000  34.7892 152.9844  1.00274135  4851
COSMOS 2584 [GLONASS-K2]
1 63130U 25042A   26158.28586220 -.00000011  00000+0  00000+0 0  9992
2 63130  65.0788  73.1386 0005905 230.6055 129.3655  2.13103973  9837
NAVSTAR 84 (USA 545)    
1 64202U 25116A   26155.36633038 -.00000073  00000+0  00000+0 0  9999
2 64202  55.2259  31.6468 0008452 337.8257 196.1658  2.00577081  7616
COSMOS 2596 [GLONASS-K1]
1 65590U 25206B   26158.60067161 -.00000030  00000+0  00000+0 0  9991
2 65590  64.6401 315.3197 0011131 313.3132  44.6194  2.13100779  5700
GSAT0233 (GALILEO 33)   
1 67160U 25302A   26157.66258742  .00000023  00000+0  00000+0 0  9996
2 67160  54.3305 102.4316 0001324 236.8649 300.4651  1.70474269  2941
GSAT0234 (GALILEO 34)   
1 67162U 25302C   26154.85627277  .00000010  00000+0  00000+0 0  9995
2 67162  54.3286 102.5103 0003271 302.9496 132.1778  1.70474390  2950
NAVSTAR 85 (USA 581)    
1 67588U 26017A   26156.23183609  .00000004  00000+0  00000+0 0  9994
2 67588  55.0812  89.2351 0022663 257.5579 102.1794  2.00571538431377
NAVSTAR 86 (USA 585)    
1 68791U 26087A   26156.43970229  .00000045  00000+0  00000+0 0  9997
2 68791  54.9639 208.2526 0020960 107.2589 248.2165  2.00569475   593
